{"type": "FeatureCollection", "features": [ {"type": "Feature", "properties": {"norad_id": 32384, "name": "GPS BIIRM-5 (PRN 29)", "group": "gps-ops", "lat": -38.14528885854245, "lon": 134.52718845821812, "alt_km": 20151.096972919, "timestamp": "2025-12-17T09:00:17.407099+00:00", "meta": {"OBJECT_NAME": "GPS BIIRM-5 (PRN 29)", "OBJECT_ID": "2007-062A", "EPOCH": "2025-12-16T07:14:28.728960", "MEAN_MOTION": 2.00577559, "ECCENTRICITY": 0.00322451, "INCLINATION": 55.1791, "RA_OF_ASC_NODE": 281.5031, "ARG_OF_PERICENTER": 162.3169, "MEAN_ANOMALY": 10.9325, "EPHEMERIS_TYPE": 0, "CLASSIFICATION_TYPE": "U", "NORAD_CAT_ID": 32384, "ELEMENT_SET_NO": 999, "REV_AT_EPOCH": 13184, "BSTAR": 0, "MEAN_MOTION_DOT": -6.6e-07, "MEAN_MOTION_DDOT": 0}, "tle": {"line1": "1 32384U 07062A   25350.30172140 -.00000066  00000+0  00000+0 0  9999", "line2": "2 32384  55.1791 281.5031 0032245 162.3169  10.9325  2.00577559131841"}}, "geometry": {"type": "Point", "coordinates": [134.52718845821812, -38.14528885854245]}}, {"type": "Feature", "properties": {"norad_id": 32711, "name": "GPS BIIRM-6 (PRN 07)", "group": "gps-ops", "lat": 23.753393802271557, "lon": -41.152846963625535, "alt_km": 20212.77633018033, "timestamp": "2025-12-17T09:00:17.407110+00:00", "meta": {"OBJECT_NAME": "GPS BIIRM-6 (PRN 07)", "OBJECT_ID": "2008-012A", "EPOCH": "2025-12-16T03:55:52.800384", "MEAN_MOTION": 2.00565827, "ECCENTRICITY": 0.0202594, "INCLINATION": 54.4775, "RA_OF_ASC_NODE": 157.2362, "ARG_OF_PERICENTER": 244.9852, "MEAN_ANOMALY": 112.9072, "EPHEMERIS_TYPE": 0, "CLASSIFICATION_TYPE": "U", "NORAD_CAT_ID": 32711, "ELEMENT_SET_NO": 999, "REV_AT_EPOCH": 13008, "BSTAR": 0, "MEAN_MOTION_DOT": 8.9e-07, "MEAN_MOTION_DDOT": 0}, "tle": {"line1": "1 32711U 08012A   25350.16380556  .00000089  00000+0  00000+0 0  9999", "line2": "2 32711  54.4775 157.2362 0202594 244.9852 112.9072  2.00565827130089"}}, "geometry": {"type": "Point", "coordinates": [-41.152846963625535, 23.753393802271557]}}, {"type": "Feature", "properties": {"norad_id": 35752, "name": "GPS BIIRM-8 (PRN 05)", "group": "gps-ops", "lat": 5.695299089806467, "lon": -149.22332926550484, "alt_km": 20184.10011625313, "timestamp": "2025-12-17T09:00:17.407122+00:00", "meta": {"OBJECT_NAME": "GPS BIIRM-8 (PRN 05)", "OBJECT_ID": "2009-043A", "EPOCH": "2025-12-15T22:20:02.106816", "MEAN_MOTION": 2.00565586, "ECCENTRICITY": 0.00517182, "INCLINATION": 56.0932, "RA_OF_ASC_NODE": 34.6571, "ARG_OF_PERICENTER": 81.8462, "MEAN_ANOMALY": 127.6063, "EPHEMERIS_TYPE": 0, "CLASSIFICATION_TYPE": "U", "NORAD_CAT_ID": 35752, "ELEMENT_SET_NO": 999, "REV_AT_EPOCH": 11968, "BSTAR": 0, "MEAN_MOTION_DOT": -8.6e-07, "MEAN_MOTION_DDOT": 0}, "tle": {"line1": "1 35752U 09043A   25349.93057994 -.00000086  00000+0  00000+0 0  9990", "line2": "2 35752  56.0932  34.6571 0051718  81.8462 127.6063  2.00565586119683"}}, "geometry": {"type": "Point", "coordinates": [-149.22332926550484, 5.695299089806467]}}, {"type": "Feature", "properties": {"norad_id": 36585, "name": "GPS BIIF-1  (PRN 25)", "group": "gps-ops", "lat": -49.87500245447508, "lon": 157.38577175705868, "alt_km": 20425.533012055188, "timestamp": "2025-12-17T09:00:17.407133+00:00", "meta": {"OBJECT_NAME": "GPS BIIF-1  (PRN 25)", "OBJECT_ID": "2010-022A", "EPOCH": "2025-12-16T01:01:22.883808", "MEAN_MOTION": 2.00553454, "ECCENTRICITY": 0.01262565, "INCLINATION": 54.2996, "RA_OF_ASC_NODE": 215.9407, "ARG_OF_PERICENTER": 65.1133, "MEAN_ANOMALY": 343.5127, "EPHEMERIS_TYPE": 0, "CLASSIFICATION_TYPE": "U", "NORAD_CAT_ID": 36585, "ELEMENT_SET_NO": 999, "REV_AT_EPOCH": 11392, "BSTAR": 0, "MEAN_MOTION_DOT": 7.2e-07, "MEAN_MOTION_DDOT": 0}, "tle": {"line1": "1 36585U 10022A   25350.04262597  .00000072  00000+0  00000+0 0  9999", "line2": "2 36585  54.2996 215.9407 0126256  65.1133 343.5127  2.00553454113922"}}, "geometry": {"type": "Point", "coordinates": [157.38577175705868, -49.87500245447508]}}, {"type": "Feature", "properties": {"norad_id": 38833, "name": "GPS BIIF-3  (PRN 24)", "group": "gps-ops", "lat": 21.603656951111184, "lon": 168.05634647727095, "alt_km": 19802.706195445247, "timestamp": "2025-12-17T09:00:17.407144+00:00", "meta": {"OBJECT_NAME": "GPS BIIF-3  (PRN 24)", "OBJECT_ID": "2012-053A", "EPOCH": "2025-12-15T20:13:20.824032", "MEAN_MOTION": 2.00565066, "ECCENTRICITY": 0.01759247, "INCLINATION": 53.5583, "RA_OF_ASC_NODE": 151.1115, "ARG_OF_PERICENTER": 64.0399, "MEAN_ANOMALY": 297.7616, "EPHEMERIS_TYPE": 0, "CLASSIFICATION_TYPE": "U", "NORAD_CAT_ID": 38833, "ELEMENT_SET_NO": 999, "REV_AT_EPOCH": 9576, "BSTAR": 0, "MEAN_MOTION_DOT": 8e-07, "MEAN_MOTION_DDOT": 0}, "tle": {"line1": "1 38833U 12053A   25349.84260213  .00000080  00000+0  00000+0 0  9991", "line2": "2 38833  53.5583 151.1115 0175924  64.0399 297.7616  2.00565066 95765"}}, "geometry": {"type": "Point", "coordinates": [168.05634647727095, 21.603656951111184]}}, {"type": "Feature", "properties": {"norad_id": 39166, "name": "GPS BIIF-4  (PRN 27)", "group": "gps-ops", "lat": 40.285890306326465, "lon": 59.43551263751858, "alt_km": 20102.98775978212, "timestamp": "2025-12-17T09:00:17.407155+00:00", "meta": {"OBJECT_NAME": "GPS BIIF-4  (PRN 27)", "OBJECT_ID": "2013-023A", "EPOCH": "2025-12-15T04:59:33.811872", "MEAN_MOTION": 2.00564736, "ECCENTRICITY": 0.01378529, "INCLINATION": 54.65, "RA_OF_ASC_NODE": 276.4679, "ARG_OF_PERICENTER": 48.4851, "MEAN_ANOMALY": 312.7012, "EPHEMERIS_TYPE": 0, "CLASSIFICATION_TYPE": "U", "NORAD_CAT_ID": 39166, "ELEMENT_SET_NO": 999, "REV_AT_EPOCH": 9219, "BSTAR": 0, "MEAN_MOTION_DOT": -6.8e-07, "MEAN_MOTION_DDOT": 0}, "tle": {"line1": "1 39166U 13023A   25349.20803023 -.00000068  00000+0  00000+0 0  9998", "line2": "2 39166  54.6500 276.4679 0137852  48.4851 312.7012  2.00564736 92194"}}, "geometry": {"type": "Point", "coordinates": [59.43551263751858, 40.285890306326465]}}, {"type": "Feature", "properties": {"norad_id": 39533, "name": "GPS BIIF-5  (PRN 30)", "group": "gps-ops", "lat": 39.481589843082205, "lon": -60.669436445525434, "alt_km": 20207.020104151507, "timestamp": "2025-12-17T09:00:17.407167+00:00", "meta": {"OBJECT_NAME": "GPS BIIF-5  (PRN 30)", "OBJECT_ID": "2014-008A", "EPOCH": "2025-12-16T04:46:33.160224", "MEAN_MOTION": 2.00574644, "ECCENTRICITY": 0.00793151, "INCLINATION": 53.6318, "RA_OF_ASC_NODE": 156.7835, "ARG_OF_PERICENTER": 226.5644, "MEAN_ANOMALY": 132.7818, "EPHEMERIS_TYPE": 0, "CLASSIFICATION_TYPE": "U", "NORAD_CAT_ID": 39533, "ELEMENT_SET_NO": 999, "REV_AT_EPOCH": 8601, "BSTAR": 0, "MEAN_MOTION_DOT": 8.7e-07, "MEAN_MOTION_DDOT": 0}, "tle": {"line1": "1 39533U 14008A   25350.19899491  .00000087  00000+0  00000+0 0  9994", "line2": "2 39533  53.6318 156.7835 0079315 226.5644 132.7818  2.00574644 86017"}}, "geometry": {"type": "Point", "coordinates": [-60.669436445525434, 39.481589843082205]}}, {"type": "Feature", "properties": {"norad_id": 39741, "name": "GPS BIIF-6  (PRN 06)", "group": "gps-ops", "lat": -54.07764652952403, "lon": -87.105650777369, "alt_km": 20102.457293218093, "timestamp": "2025-12-17T09:00:17.407178+00:00", "meta": {"OBJECT_NAME": "GPS BIIF-6  (PRN 06)", "OBJECT_ID": "2014-026A", "EPOCH": "2025-12-15T23:36:56.796480", "MEAN_MOTION": 2.00561228, "ECCENTRICITY": 0.00392671, "INCLINATION": 56.5823, "RA_OF_ASC_NODE": 338.6501, "ARG_OF_PERICENTER": 318.8752, "MEAN_ANOMALY": 40.8399, "EPHEMERIS_TYPE": 0, "CLASSIFICATION_TYPE": "U", "NORAD_CAT_ID": 39741, "ELEMENT_SET_NO": 999, "REV_AT_EPOCH": 8486, "BSTAR": 0, "MEAN_MOTION_DOT": -8.7e-07, "MEAN_MOTION_DDOT": 0}, "tle": {"line1": "1 39741U 14026A   25349.98399070 -.00000087  00000+0  00000+0 0  9999", "line2": "2 39741  56.5823 338.6501 0039267 318.8752  40.8399  2.00561228 84867"}}, "geometry": {"type": "Point", "coordinates": [-87.105650777369, -54.07764652952403]}}, {"type": "Feature", "properties": {"norad_id": 40105, "name": "GPS BIIF-7  (PRN 09)", "group": "gps-ops", "lat": -33.54288509567269, "lon": -56.90819726127201, "alt_km": 20203.601972843022, "timestamp": "2025-12-17T09:00:17.407189+00:00", "meta": {"OBJECT_NAME": "GPS BIIF-7  (PRN 09)", "OBJECT_ID": "2014-045A", "EPOCH": "2025-12-15T01:46:50.034144", "MEAN_MOTION": 2.00572752, "ECCENTRICITY": 0.00326343, "INCLINATION": 55.2306, "RA_OF_ASC_NODE": 95.8057, "ARG_OF_PERICENTER": 119.9544, "MEAN_ANOMALY": 240.3532, "EPHEMERIS_TYPE": 0, "CLASSIFICATION_TYPE": "U", "NORAD_CAT_ID": 40105, "ELEMENT_SET_NO": 999, "REV_AT_EPOCH": 8238, "BSTAR": 0, "MEAN_MOTION_DOT": -3.6e-07, "MEAN_MOTION_DDOT": 0}, "tle": {"line1": "1 40105U 14045A   25349.07419021 -.00000036  00000+0  00000+0 0  9999", "line2": "2 40105  55.2306  95.8057 0032634 119.9544 240.3532  2.00572752 82388"}}, "geometry": {"type": "Point", "coordinates": [-56.90819726127201, -33.54288509567269]}}, {"type": "Feature", "properties": {"norad_id": 40294, "name": "GPS BIIF-8  (PRN 03)", "group": "gps-ops", "lat": -40.182793874684705, "lon": 4.532771049025687, "alt_km": 20265.621369620956, "timestamp": "2025-12-17T09:00:17.407200+00:00", "meta": {"OBJECT_NAME": "GPS BIIF-8  (PRN 03)", "OBJECT_ID": "2014-068A", "EPOCH": "2025-12-16T10:44:59.348832", "MEAN_MOTION": 2.00565206, "ECCENTRICITY": 0.00607873, "INCLINATION": 56.8606, "RA_OF_ASC_NODE": 38.0026, "ARG_OF_PERICENTER": 69.1046, "MEAN_ANOMALY": 291.6035, "EPHEMERIS_TYPE": 0, "CLASSIFICATION_TYPE": "U", "NORAD_CAT_ID": 40294, "ELEMENT_SET_NO": 999, "REV_AT_EPOCH": 8154, "BSTAR": 0, "MEAN_MOTION_DOT": -8.2e-07, "MEAN_MOTION_DDOT": 0}, "tle": {"line1": "1 40294U 14068A   25350.44790913 -.00000082  00000+0  00000+0 0  9999", "line2": "2 40294  56.8606  38.0026 0060787  69.1046 291.6035  2.00565206 81545"}}, "geometry": {"type": "Point", "coordinates": [4.532771049025687, -40.182793874684705]}}]}